LEMUR-2-ROUNDTRIPPER    
1 62711U 25009DG  26177.94125465  .00009074  00000+0  66159-3 0  9991
2 62711  97.7249 260.6073 0005533 107.7401 252.4428 15.03943971 79091
LEMUR-2-MYNAMEISJEFF    
1 62712U 25009DH  26177.74004893  .00007836  00000+0  57222-3 0  9996
2 62712  97.7293 260.7932 0003965 134.1431 226.0121 15.03936471 79061
LEMUR-2-LEIA-PHILIP     
1 63246U 25052AN  26177.96013055  .00001323  00000+0  11899-3 0  9996
2 63246  97.6820  69.7463 0003725 177.1582 182.9661 14.97337360 70135
LEMUR-2-LIA-MARTIN      
1 63248U 25052AQ  26177.96188643  .00004958  00000+0  42609-3 0  9994
2 63248  97.6876  70.2373 0003852 139.4162 220.7348 14.97873379 70140
LEMUR-2-DELOITTE-1      
1 63259U 25052BB  26177.67230583  .00003218  00000+0  27978-3 0  9995
2 63259  97.6926  70.2830 0003152  76.8676 283.2898 14.97668462 70119
LEMUR-2-EMERSONROSE     
1 63261U 25052BD  26177.97190863  .00004456  00000+0  37113-3 0  9994
2 63261  97.6879  71.1533 0002075  78.1237 282.0219 14.99146266 70209
LEMUR-2-MARACHE-FRAN    
1 63262U 25052BE  26177.94050693  .00005078  00000+0  41103-3 0  9993
2 63262  97.6924  71.4607 0004484 342.7107  17.3963 15.00183849 70226
LEMUR-2-THEFALCONER     
1 63264U 25052BG  26177.96738526  .00004010  00000+0  34940-3 0  9991
2 63264  97.6850  70.1820 0001518  16.8199 343.3073 14.97445247 70158
LEMUR-2-UNTITLED-SC     
1 63351U 25061A   26177.87353341  .00004079  00000+0  23054-3 0  9995
2 63351  97.5637 153.1649 0017365 227.9953 131.9800 15.13537128 69053
LEMUR-2-ESPERANZA       
1 63352U 25061B   26177.91618957  .00003436  00000+0  19435-3 0  9992
2 63352  97.5641 153.3028 0016964 226.9985 132.9825 15.13628580 69062
LEMUR-2-KREMPEL-BRO2    
1 63353U 25061C   26177.94035791  .00004158  00000+0  23146-3 0  9991
2 63353  97.5688 153.8727 0018071 219.0193 140.9736 15.14067904 69080
LEMUR-2-THERMORAPTOR    
1 63354U 25061D   26177.92190996  .00003595  00000+0  20019-3 0  9999
2 63354  97.5694 153.9321 0017798 217.7197 142.2788 15.14148567 69080
LEMUR-2-NEUROSPICY      
1 63355U 25061E   26177.89284060  .00004090  00000+0  22667-3 0  9994
2 63355  97.5620 153.5215 0015569 221.3544 138.6510 15.14263450 69080
LEMUR-2-TILLINFINITY    
1 63356U 25061F   26177.92436087  .00003779  00000+0  20620-3 0  9997
2 63356  97.5605 153.8503 0017096 208.5865 151.4431 15.14850004 69113
LEMUR-2-KREMPEL-BRO1    
1 63357U 25061G   26177.89908044  .00004013  00000+0  21990-3 0  9994
2 63357  97.5607 153.7385 0017711 210.3856 149.6351 15.14655024 69102
LEMUR-2-LANGER2SPACE    
1 63358U 25061H   26177.92752647  .00003794  00000+0  21004-3 0  9996
2 63358  97.5612 153.5769 0015497 219.1399 140.8713 15.14351727 69097
LEMUR-2-BALTO           
1 63395U 25052BH  26177.65843373  .00006037  00000+0  48749-3 0  9992
2 63395  97.6923  71.1573 0006598  32.7587 327.4044 15.00186418 70182
LEMUR-2-KRISH           
1 64561U 25135AK  26177.83816129  .00005139  00000+0  45987-3 0  9992
2 64561  97.7746 292.6483 0001094 101.8300 258.3044 14.96287322 55364
LEMUR-2-HUBBLE-4        
1 64565U 25135AP  26176.24464968  .00001390  00000+0  13793-3 0  9995
2 64565  97.7646 290.0421 0002848 296.9282  63.1646 14.93362478 55075
LEMUR-2-SEJONG-2        
1 64586U 25135BL  26177.93187830  .00005512  00000+0  48671-3 0  9998
2 64586  97.7694 292.8855 0002798 300.6407  59.4539 14.96772392 55407
LEMUR-2-HUBBLE-5        
1 64840U 25135BT  26177.86798206  .00001969  00000+0  18925-3 0  9999
2 64840  97.7725 292.3067 0004290 316.9412  43.1472 14.94164417 55351
LEMUR-2-KARENDARRELL    
1 64841U 25135BU  26177.85647618  .00008853  00000+0  71087-3 0  9996
2 64841  97.7684 294.0480 0010527 165.7720 194.3802 15.00247680 55466
LEMUR-2-LUCILLE-ROSE    
1 65403U 25135BV  26177.29638441  .00007987  00000+0  64143-3 0  9995
2 65403  97.7748 293.5183 0012236 249.5106 110.4804 15.00260284 50005
LEMUR-2-AFFIE-WAUWIE    
1 66295U 25248C   26177.67056753  .00022909  00000+0  84292-3 0  9990
2 66295  45.3937  63.5971 0007708 149.2516 210.8826 15.27531092 36047
LEMUR-2-DEANANDMAEVE    
1 66678U 25276N   26177.92743004  .00006970  00000+0  32805-3 0  9999
2 66678  97.4217 251.2416 0004777 338.6730  21.4306 15.19846967 31894
LEMUR-2-STAS-GORBUK     
1 66686U 25276W   26177.94423777  .00006354  00000+0  30261-3 0  9992
2 66686  97.4250 251.3121 0004067 339.0913  21.0155 15.19478327 31893
LEMUR-2-TEODOR          
1 66768U 25276DG  26177.91732001  .00005922  00000+0  26896-3 0  9992
2 66768  97.4156 251.5345 0002395 107.1697 252.9801 15.21150658 31928
LEMUR-2-LAILA           
1 66776U 25276DQ  26177.75827381  .00006185  00000+0  27897-3 0  9993
2 66776  97.4178 251.5045 0002670 121.9705 238.1791 15.21370891 31903
LEMUR-2-CELIJO-SB-PK    
1 66781U 25276DW  26177.70911862  .00006207  00000+0  50213-3 0  9995
2 66781  97.5234 248.1738 0008158 109.6648 250.5457 15.00085304 24054
